[{"OBJECT_NAME":"STARLINK-36660","OBJECT_ID":"2026-033AD","EPOCH":"2026-03-06T18:30:53.603136","MEAN_MOTION":15.82104459,"ECCENTRICITY":0.0002386,"INCLINATION":42.9974,"RA_OF_ASC_NODE":289.1409,"ARG_OF_PERICENTER":276.0324,"MEAN_ANOMALY":84.0276,"EPHEMERIS_TYPE":0,"CLASSIFICATION_TYPE":"U","NORAD_CAT_ID":67848,"ELEMENT_SET_NO":999,"REV_AT_EPOCH":416,"BSTAR":0.001116,"MEAN_MOTION_DOT":0.00242159,"MEAN_MOTION_DDOT":0},{"OBJECT_NAME":"STARLINK-36602","OBJECT_ID":"2026-033AE","EPOCH":"2026-03-06T18:29:48.767712","MEAN_MOTION":15.82151913,"ECCENTRICITY":0.0002231,"INCLINATION":42.9969,"RA_OF_ASC_NODE":289.134,"ARG_OF_PERICENTER":265.02,"MEAN_ANOMALY":95.0417,"EPHEMERIS_TYPE":0,"CLASSIFICATION_TYPE":"U","NORAD_CAT_ID":67849,"ELEMENT_SET_NO":999,"REV_AT_EPOCH":416,"BSTAR":0.0016889,"MEAN_MOTION_DOT":0.00373228,"MEAN_MOTION_DDOT":0},{"OBJECT_NAME":"STARLINK-36840","OBJECT_ID":"2026-034A","EPOCH":"2026-03-06T19:45:53.386848","MEAN_MOTION":15.80965693,"ECCENTRICITY":8.18e-5,"INCLINATION":53.1595,"RA_OF_ASC_NODE":225.7221,"ARG_OF_PERICENTER":75.5904,"MEAN_ANOMALY":284.521,"EPHEMERIS_TYPE":0,"CLASSIFICATION_TYPE":"U","NORAD_CAT_ID":67850,"ELEMENT_SET_NO":999,"REV_AT_EPOCH":348,"BSTAR":0.0012524,"MEAN_MOTION_DOT":0.00255002,"MEAN_MOTION_DDOT":0},{"OBJECT_NAME":"STARLINK-36348","OBJECT_ID":"2026-034B","EPOCH":"2026-03-06T19:44:48.325920","MEAN_MOTION":15.80933898,"ECCENTRICITY":0.0001129,"INCLINATION":53.1596,"RA_OF_ASC_NODE":225.7159,"ARG_OF_PERICENTER":57.3053,"MEAN_ANOMALY":302.8078,"EPHEMERIS_TYPE":0,"CLASSIFICATION_TYPE":"U","NORAD_CAT_ID":67851,"ELEMENT_SET_NO":999,"REV_AT_EPOCH":348,"BSTAR":0.00068243,"MEAN_MOTION_DOT":0.00136522,"MEAN_MOTION_DDOT":0},{"OBJECT_NAME":"STARLINK-36276","OBJECT_ID":"2026-034C","EPOCH":"2026-03-06T19:43:42.261888","MEAN_MOTION":15.80936227,"ECCENTRICITY":7.46e-5,"INCLINATION":53.1595,"RA_OF_ASC_NODE":225.7111,"ARG_OF_PERICENTER":85.9002,"MEAN_ANOMALY":274.2106,"EPHEMERIS_TYPE":0,"CLASSIFICATION_TYPE":"U","NORAD_CAT_ID":67852,"ELEMENT_SET_NO":999,"REV_AT_EPOCH":348,"BSTAR":0.00089426,"MEAN_MOTION_DOT":0.00180052,"MEAN_MOTION_DDOT":0},{"OBJECT_NAME":"STARLINK-36785","OBJECT_ID":"2026-034D","EPOCH":"2026-03-06T19:42:38.628288","MEAN_MOTION":15.80974126,"ECCENTRICITY":7.38e-5,"INCLINATION":53.1595,"RA_OF_ASC_NODE":225.7058,"ARG_OF_PERICENTER":50.2384,"MEAN_ANOMALY":309.8704,"EPHEMERIS_TYPE":0,"CLASSIFICATION_TYPE":"U","NORAD_CAT_ID":67853,"ELEMENT_SET_NO":999,"REV_AT_EPOCH":348,"BSTAR":0.00121,"MEAN_MOTION_DOT":0.00246205,"MEAN_MOTION_DDOT":0},{"OBJECT_NAME":"STARLINK-36608","OBJECT_ID":"2026-034E","EPOCH":"2026-03-06T19:41:33.880992","MEAN_MOTION":15.80953226,"ECCENTRICITY":4.91e-5,"INCLINATION":53.1598,"RA_OF_ASC_NODE":225.7011,"ARG_OF_PERICENTER":74.3449,"MEAN_ANOMALY":285.7628,"EPHEMERIS_TYPE":0,"CLASSIFICATION_TYPE":"U","NORAD_CAT_ID":67854,"ELEMENT_SET_NO":999,"REV_AT_EPOCH":347,"BSTAR":0.00094051,"MEAN_MOTION_DOT":0.00189766,"MEAN_MOTION_DDOT":0},{"OBJECT_NAME":"STARLINK-36838","OBJECT_ID":"2026-034F","EPOCH":"2026-03-06T19:40:28.915968","MEAN_MOTION":15.81001602,"ECCENTRICITY":6.18e-5,"INCLINATION":53.1595,"RA_OF_ASC_NODE":225.6957,"ARG_OF_PERICENTER":53.4858,"MEAN_ANOMALY":306.6222,"EPHEMERIS_TYPE":0,"CLASSIFICATION_TYPE":"U","NORAD_CAT_ID":67855,"ELEMENT_SET_NO":999,"REV_AT_EPOCH":348,"BSTAR":0.0015344,"MEAN_MOTION_DOT":0.00315347,"MEAN_MOTION_DDOT":0},{"OBJECT_NAME":"STARLINK-36843","OBJECT_ID":"2026-034G","EPOCH":"2026-03-06T19:38:19.249440","MEAN_MOTION":15.80992051,"ECCENTRICITY":5.58e-5,"INCLINATION":53.1595,"RA_OF_ASC_NODE":225.6857,"ARG_OF_PERICENTER":28.7121,"MEAN_ANOMALY":331.3933,"EPHEMERIS_TYPE":0,"CLASSIFICATION_TYPE":"U","NORAD_CAT_ID":67856,"ELEMENT_SET_NO":999,"REV_AT_EPOCH":348,"BSTAR":0.0013817,"MEAN_MOTION_DOT":0.00282678,"MEAN_MOTION_DDOT":0},{"OBJECT_NAME":"STARLINK-36828","OBJECT_ID":"2026-034H","EPOCH":"2026-03-06T19:39:24.445152","MEAN_MOTION":15.80949002,"ECCENTRICITY":0.0001016,"INCLINATION":53.1593,"RA_OF_ASC_NODE":225.6913,"ARG_OF_PERICENTER":79.1731,"MEAN_ANOMALY":280.9406,"EPHEMERIS_TYPE":0,"CLASSIFICATION_TYPE":"U","NORAD_CAT_ID":67857,"ELEMENT_SET_NO":999,"REV_AT_EPOCH":348,"BSTAR":0.00097465,"MEAN_MOTION_DOT":0.001968,"MEAN_MOTION_DDOT":0},{"OBJECT_NAME":"STARLINK-36837","OBJECT_ID":"2026-034J","EPOCH":"2026-03-06T19:37:14.571264","MEAN_MOTION":15.80955953,"ECCENTRICITY":6.84e-5,"INCLINATION":53.1595,"RA_OF_ASC_NODE":225.6801,"ARG_OF_PERICENTER":33.0875,"MEAN_ANOMALY":327.0191,"EPHEMERIS_TYPE":0,"CLASSIFICATION_TYPE":"U","NORAD_CAT_ID":67858,"ELEMENT_SET_NO":999,"REV_AT_EPOCH":348,"BSTAR":0.00099615,"MEAN_MOTION_DOT":0.00201329,"MEAN_MOTION_DDOT":0},{"OBJECT_NAME":"STARLINK-36393","OBJECT_ID":"2026-034K","EPOCH":"2026-03-06T19:36:09.835200","MEAN_MOTION":15.80951315,"ECCENTRICITY":7.74e-5,"INCLINATION":53.1597,"RA_OF_ASC_NODE":225.6748,"ARG_OF_PERICENTER":69.1796,"MEAN_ANOMALY":290.931,"EPHEMERIS_TYPE":0,"CLASSIFICATION_TYPE":"U","NORAD_CAT_ID":67859,"ELEMENT_SET_NO":999,"REV_AT_EPOCH":348,"BSTAR":0.00098078,"MEAN_MOTION_DOT":0.00198094,"MEAN_MOTION_DDOT":0},{"OBJECT_NAME":"STARLINK-35873","OBJECT_ID":"2026-034L","EPOCH":"2026-03-06T19:35:04.870176","MEAN_MOTION":15.81000791,"ECCENTRICITY":2.99e-5,"INCLINATION":53.1594,"RA_OF_ASC_NODE":225.6696,"ARG_OF_PERICENTER":111.8794,"MEAN_ANOMALY":248.2261,"EPHEMERIS_TYPE":0,"CLASSIFICATION_TYPE":"U","NORAD_CAT_ID":67860,"ELEMENT_SET_NO":999,"REV_AT_EPOCH":351,"BSTAR":0.0015475,"MEAN_MOTION_DOT":0.00318141,"MEAN_MOTION_DDOT":0},{"OBJECT_NAME":"STARLINK-36325","OBJECT_ID":"2026-034M","EPOCH":"2026-03-06T19:34:00.223968","MEAN_MOTION":15.80939352,"ECCENTRICITY":6.52e-5,"INCLINATION":53.1597,"RA_OF_ASC_NODE":225.6649,"ARG_OF_PERICENTER":47.5007,"MEAN_ANOMALY":312.6071,"EPHEMERIS_TYPE":0,"CLASSIFICATION_TYPE":"U","NORAD_CAT_ID":67861,"ELEMENT_SET_NO":999,"REV_AT_EPOCH":348,"BSTAR":0.00078938,"MEAN_MOTION_DOT":0.00158474,"MEAN_MOTION_DDOT":0},{"OBJECT_NAME":"STARLINK-36332","OBJECT_ID":"2026-034N","EPOCH":"2026-03-06T19:32:55.278816","MEAN_MOTION":15.80963474,"ECCENTRICITY":6.69e-5,"INCLINATION":53.1593,"RA_OF_ASC_NODE":225.6594,"ARG_OF_PERICENTER":104.1101,"MEAN_ANOMALY":255.9996,"EPHEMERIS_TYPE":0,"CLASSIFICATION_TYPE":"U","NORAD_CAT_ID":67862,"ELEMENT_SET_NO":999,"REV_AT_EPOCH":348,"BSTAR":0.0011051,"MEAN_MOTION_DOT":0.00224111,"MEAN_MOTION_DDOT":0},{"OBJECT_NAME":"STARLINK-36835","OBJECT_ID":"2026-034P","EPOCH":"2026-03-06T19:31:50.583360","MEAN_MOTION":15.80948638,"ECCENTRICITY":9.92e-5,"INCLINATION":53.1599,"RA_OF_ASC_NODE":225.654,"ARG_OF_PERICENTER":42.0461,"MEAN_ANOMALY":318.0637,"EPHEMERIS_TYPE":0,"CLASSIFICATION_TYPE":"U","NORAD_CAT_ID":67863,"ELEMENT_SET_NO":999,"REV_AT_EPOCH":348,"BSTAR":0.00086993,"MEAN_MOTION_DOT":0.00175132,"MEAN_MOTION_DDOT":0},{"OBJECT_NAME":"STARLINK-36831","OBJECT_ID":"2026-034Q","EPOCH":"2026-03-06T19:30:45.911232","MEAN_MOTION":15.8097973,"ECCENTRICITY":0.0001064,"INCLINATION":53.1588,"RA_OF_ASC_NODE":225.6489,"ARG_OF_PERICENTER":90.0343,"MEAN_ANOMALY":270.0802,"EPHEMERIS_TYPE":0,"CLASSIFICATION_TYPE":"U","NORAD_CAT_ID":67864,"ELEMENT_SET_NO":999,"REV_AT_EPOCH":348,"BSTAR":0.0014696,"MEAN_MOTION_DOT":0.00301168,"MEAN_MOTION_DDOT":0}]
